MAZAALAI (NUMSAT-1)     
1 42822U 98067MW  17345.89168177  .00016767  00000-0  20499-3 0  9999
2 42822  51.6369 228.6759 0003810 165.5031 194.6072 15.60537563 24525
